{
  "capturedAt": "2026-06-29T09:26:21.702Z",
  "stations": [
    {
      "icao": "KSFO",
      "label": "marine-layer coastal, night",
      "raw": "METAR KSFO 290856Z 28008KT 10SM FEW008 FEW013 13/11 A2985 RMK AO2 SLP109 T01330106 58007 $"
    },
    {
      "icao": "KMRY",
      "label": "Monterey marine layer",
      "raw": "SPECI KMRY 290920Z AUTO 21009KT 10SM OVC010 14/11 A2989 RMK AO2 T01390111"
    },
    {
      "icao": "KSMX",
      "label": "Santa Maria coastal",
      "raw": "SPECI KSMX 290901Z 00000KT 6SM BR BKN009 11/11 A2989 RMK AO2 T01110106 $"
    },
    {
      "icao": "KACV",
      "label": "Arcata foggy coast",
      "raw": "METAR KACV 290853Z AUTO 00000KT 10SM OVC012 12/11 A2998 RMK AO2 SLP158 T01170106 58012"
    },
    {
      "icao": "EGLL",
      "label": "London Heathrow, morning",
      "raw": "METAR EGLL 290920Z AUTO 29010KT 270V330 9999 FEW041 19/08 Q1026"
    },
    {
      "icao": "EHAM",
      "label": "Amsterdam, morning",
      "raw": "METAR EHAM 290855Z 30009KT 270V330 9999 FEW018 22/16 Q1024 NOSIG"
    },
    {
      "icao": "EIDW",
      "label": "Dublin maritime",
      "raw": "METAR EIDW 290900Z 23008KT 170V270 9999 FEW018 BKN036 16/10 Q1023 NOSIG"
    },
    {
      "icao": "EGPF",
      "label": "Glasgow maritime",
      "raw": "METAR EGPF 290920Z AUTO 23016KT 9999 SCT017 BKN033 15/11 Q1021"
    },
    {
      "icao": "EKCH",
      "label": "Copenhagen",
      "raw": "METAR EKCH 290920Z AUTO 27012KT 9999 FEW024/// BKN120/// 22/16 Q1022 NOSIG"
    },
    {
      "icao": "ENGM",
      "label": "Oslo",
      "raw": "METAR ENGM 290920Z 25007KT 210V280 9999 FEW041 22/12 Q1013 NOSIG"
    },
    {
      "icao": "BIKF",
      "label": "Keflavik (cold, often low cloud)",
      "raw": "METAR BIKF 290900Z 25015KT 9999 SCT017 BKN048 09/07 Q0996"
    },
    {
      "icao": "OMDB",
      "label": "Dubai desert, afternoon",
      "raw": "METAR OMDB 290900Z 30011KT 270V340 CAVOK 39/21 Q0999 NOSIG"
    },
    {
      "icao": "OERK",
      "label": "Riyadh desert",
      "raw": "METAR OERK 290900Z 33006KT CAVOK 41/M06 Q1008 NOSIG"
    },
    {
      "icao": "OEJN",
      "label": "Jeddah coastal desert",
      "raw": "METAR OEJN 290900Z 32019KT CAVOK 40/15 Q1004 NOSIG"
    },
    {
      "icao": "KPHX",
      "label": "Phoenix desert (night)",
      "raw": "METAR KPHX 290851Z 00000KT 10SM CLR 29/M06 A2970 RMK AO2 SLP034 T02941056 51012"
    },
    {
      "icao": "LLBG",
      "label": "Tel Aviv",
      "raw": "METAR LLBG 290920Z 29010KT 250V320 CAVOK 31/21 Q1010 NOSIG"
    },
    {
      "icao": "WSSS",
      "label": "Singapore humid, evening",
      "raw": "METAR WSSS 290900Z 13007KT 110V170 9999 FEW018TCU SCT160 BKN300 31/25 Q1007 NOSIG"
    },
    {
      "icao": "VTBS",
      "label": "Bangkok humid",
      "raw": "METAR VTBS 290900Z 24006KT 210V290 9999 FEW020 SCT040 32/24 Q1004 NOSIG"
    },
    {
      "icao": "RPLL",
      "label": "Manila humid",
      "raw": "METAR RPLL 290900Z 27010KT 9999 FEW023CB SCT100 31/25 Q1007 NOSIG RMK A2974 CB S"
    },
    {
      "icao": "VABB",
      "label": "Mumbai monsoon",
      "raw": "METAR VABB 290900Z 31005KT 3000 BR SCT018 FEW030CB BKN090 29/25 Q1005 NOSIG"
    },
    {
      "icao": "LGAV",
      "label": "Athens",
      "raw": "METAR LGAV 290920Z 05014KT CAVOK 31/13 Q1015 NOSIG"
    },
    {
      "icao": "LEMD",
      "label": "Madrid",
      "raw": "METAR LEMD 290900Z 05006KT 350V110 CAVOK 25/13 Q1024 NOSIG"
    },
    {
      "icao": "LIRF",
      "label": "Rome",
      "raw": "METAR LIRF 290920Z 25005KT 200V290 CAVOK 33/20 Q1016 NOSIG"
    },
    {
      "icao": "LCLK",
      "label": "Larnaca",
      "raw": "METAR LCLK 290900Z 18009KT CAVOK 33/17 Q1009 NOSIG"
    },
    {
      "icao": "KDEN",
      "label": "Denver ~1655 m",
      "raw": "METAR KDEN 290853Z 31006KT 10SM FEW050 FEW140 17/03 A2976 RMK AO2 SLP989 T01670028 53015 $"
    },
    {
      "icao": "SLLP",
      "label": "La Paz ~4000 m",
      "raw": "METAR SLLP 290900Z 08006KT 9999 4000E BCFG FEW002 M02/M02 Q1038 NOSIG"
    },
    {
      "icao": "FAOR",
      "label": "Johannesburg ~1700 m",
      "raw": "METAR FAOR 290900Z 29010KT 260V330 CAVOK 17/06 Q1026 NOSIG"
    },
    {
      "icao": "KABQ",
      "label": "Albuquerque ~1620 m",
      "raw": "METAR KABQ 290852Z 00000KT 10SM FEW130 24/01 A2995 RMK AO2 SLP037 T02440011 51011 $"
    },
    {
      "icao": "RJTT",
      "label": "Tokyo Haneda, evening",
      "raw": "METAR RJTT 290900Z 18007KT 9999 FEW020 SCT040 25/21 Q1013 NOSIG"
    },
    {
      "icao": "RKSI",
      "label": "Seoul Incheon",
      "raw": "METAR RKSI 290900Z 27011KT CAVOK 25/20 Q1011 NOSIG"
    },
    {
      "icao": "ZBAA",
      "label": "Beijing",
      "raw": "METAR ZBAA 290900Z 10002MPS 060V150 CAVOK 27/21 Q1007 NOSIG"
    },
    {
      "icao": "VHHH",
      "label": "Hong Kong humid",
      "raw": "METAR VHHH 290900Z 15010KT 110V170 9999 FEW015 31/23 Q1005 NOSIG"
    },
    {
      "icao": "KORD",
      "label": "Chicago",
      "raw": "METAR KORD 290851Z 17007KT 10SM FEW020 FEW120 25/22 A2991 RMK AO2 SLP124 T02500222 51002 $"
    },
    {
      "icao": "KMCI",
      "label": "Kansas City (app default area)",
      "raw": "METAR KMCI 290853Z 20017G26KT 10SM SCT250 27/22 A2976 RMK AO2 PK WND 19026/0826 SLP064 T02670222 53001 $"
    },
    {
      "icao": "KATL",
      "label": "Atlanta",
      "raw": "METAR KATL 290852Z 29006KT 10SM CLR 25/22 A3006 RMK AO2 SLP168 T02500217 52004 $"
    },
    {
      "icao": "SBGR",
      "label": "Sao Paulo",
      "raw": "METAR SBGR 290900Z 05007KT CAVOK 19/14 Q1020"
    },
    {
      "icao": "SAEZ",
      "label": "Buenos Aires",
      "raw": "METAR SAEZ 290900Z 29005KT CAVOK 05/03 Q1019 NOSIG"
    },
    {
      "icao": "YSSY",
      "label": "Sydney",
      "raw": "METAR YSSY 290900Z AUTO 02006KT 9999 // FEW021 SCT029 BKN044 16/13 Q1026"
    },
    {
      "icao": "NZAA",
      "label": "Auckland maritime",
      "raw": "METAR NZAA 290900Z AUTO 16005KT 9999 NCD 10/06 Q1029"
    }
  ]
}