[{"icaoId":"KMCI","receiptTime":"2026-06-28T14:56:32.378Z","obsTime":1782658380,"reportTime":"2026-06-28T15:00:00.000Z","temp":28.9,"dewp":23.3,"wdir":190,"wspd":17,"wgst":25,"visib":"10+","altim":1006.2,"slp":1004.6,"qcField":12,"presTend":-0.2,"metarType":"METAR","rawOb":"METAR KMCI 281453Z 19017G25KT 10SM FEW060 29/23 A2971 RMK AO2 PK WND 20027/1427 SLP046 T02890233 58002 $","lat":39.2975,"lon":-94.7309,"elev":308,"name":"Kansas City Intl, MO, US","cover":"FEW","clouds":[{"cover":"FEW","base":6000}],"fltCat":"VFR"}]