[{"icaoId":"KEZZ","receiptTime":"2026-06-28T15:00:22.655Z","obsTime":1782658500,"reportTime":"2026-06-28T15:00:00.000Z","temp":28,"dewp":24,"wdir":180,"wspd":14,"visib":"10+","altim":1007.9,"qcField":6,"metarType":"METAR","rawOb":"METAR KEZZ 281455Z AUTO 18014KT 10SM CLR 28/24 A2976 RMK AO2","lat":39.729,"lon":-94.2785,"elev":317,"name":"Cameron Arpt, MO, US","cover":"CLR","clouds":[],"fltCat":"VFR"},{"icaoId":"KGPH","receiptTime":"2026-06-28T14:52:05.792Z","obsTime":1782658500,"reportTime":"2026-06-28T15:00:00.000Z","temp":28,"dewp":23,"wdir":180,"wspd":8,"wgst":18,"visib":"10+","altim":1006.9,"qcField":6,"metarType":"METAR","rawOb":"METAR KGPH 281455Z AUTO 18008G18KT 10SM CLR 28/23 A2973 RMK AO2","lat":39.3248,"lon":-94.3082,"elev":233,"name":"Mosby/Midwest Air Center, MO, US","cover":"CLR","clouds":[],"fltCat":"VFR"},{"icaoId":"KOWI","receiptTime":"2026-06-28T15:00:17.060Z","obsTime":1782658500,"reportTime":"2026-06-28T15:00:00.000Z","temp":30,"dewp":24,"wdir":190,"wspd":19,"wgst":24,"altim":1006.5,"qcField":134,"metarType":"METAR","rawOb":"METAR KOWI 281455Z AUTO 19019G24KT CLR 30/24 A2972 RMK AO2 PWINO","lat":38.5409,"lon":-95.2542,"elev":292,"name":"Ottawa Muni, KS, US","cover":"CLR","clouds":[]},{"icaoId":"KLRY","receiptTime":"2026-06-28T14:58:15.303Z","obsTime":1782658500,"reportTime":"2026-06-28T15:00:00.000Z","temp":29,"dewp":23,"wdir":210,"wspd":14,"wgst":20,"visib":"10+","altim":1009.2,"qcField":6,"metarType":"METAR","rawOb":"METAR KLRY 281455Z AUTO 21014G20KT 10SM CLR 29/23 A2980 RMK AO2","lat":38.6074,"lon":-94.3453,"elev":272,"name":"Harrisonville/Smith, MO, US","cover":"CLR","clouds":[],"fltCat":"VFR"},{"icaoId":"KMKC","receiptTime":"2026-06-28T14:58:15.466Z","obsTime":1782658440,"reportTime":"2026-06-28T15:00:00.000Z","temp":29.4,"dewp":23.3,"wdir":190,"wspd":15,"wgst":23,"visib":"10+","altim":1006.5,"slp":1005.3,"qcField":4,"presTend":-0.3,"metarType":"METAR","rawOb":"METAR KMKC 281454Z 19015G23KT 10SM CLR 29/23 A2972 RMK AO2 PK WND 19026/1407 SLP053 T02940233 56003","lat":39.1279,"lon":-94.5892,"elev":228,"name":"Kansas City/Wheeler Downtown Arpt, MO, US","cover":"CLR","clouds":[],"fltCat":"VFR"},{"icaoId":"KSTJ","receiptTime":"2026-06-28T14:56:22.736Z","obsTime":1782658380,"reportTime":"2026-06-28T15:00:00.000Z","temp":28.9,"dewp":23.3,"wdir":180,"wspd":18,"wgst":24,"visib":"10+","altim":1004.8,"slp":1003.8,"qcField":12,"presTend":-0.5,"metarType":"METAR","rawOb":"METAR KSTJ 281453Z 18018G24KT 10SM CLR 29/23 A2967 RMK AO2 SLP038 T02890233 58005 $","lat":39.7683,"lon":-94.9095,"elev":247,"name":"St Joseph/Rosecrans Mem, MO, US","cover":"CLR","clouds":[],"fltCat":"VFR"},{"icaoId":"KLXT","receiptTime":"2026-06-28T14:56:32.286Z","obsTime":1782658380,"reportTime":"2026-06-28T15:00:00.000Z","temp":28.3,"dewp":23.3,"wdir":200,"wspd":18,"wgst":27,"visib":"10+","altim":1007.5,"slp":1006.4,"qcField":14,"presTend":-0.1,"metarType":"METAR","rawOb":"METAR KLXT 281453Z AUTO 20018G27KT 10SM CLR 28/23 A2975 RMK AO2 PK WND 20032/1425 SLP064 T02830233 56001 $","lat":38.9577,"lon":-94.3712,"elev":306,"name":"Lee's Summit Muni, MO, US","cover":"CLR","clouds":[],"fltCat":"VFR"},{"icaoId":"KMCI","receiptTime":"2026-06-28T14:56:32.378Z","obsTime":1782658380,"reportTime":"2026-06-28T15:00:00.000Z","temp":28.9,"dewp":23.3,"wdir":190,"wspd":17,"wgst":25,"visib":"10+","altim":1006.2,"slp":1004.6,"qcField":12,"presTend":-0.2,"metarType":"METAR","rawOb":"METAR KMCI 281453Z 19017G25KT 10SM FEW060 29/23 A2971 RMK AO2 PK WND 20027/1427 SLP046 T02890233 58002 $","lat":39.2975,"lon":-94.7309,"elev":308,"name":"Kansas City Intl, MO, US","cover":"FEW","clouds":[{"cover":"FEW","base":6000}],"fltCat":"VFR"},{"icaoId":"KIXD","receiptTime":"2026-06-28T14:56:33.821Z","obsTime":1782658380,"reportTime":"2026-06-28T15:00:00.000Z","temp":28.9,"dewp":22.8,"wdir":190,"wspd":15,"wgst":29,"visib":"10+","altim":1007.2,"slp":1005.7,"qcField":12,"metarType":"METAR","rawOb":"METAR KIXD 281453Z 19015G29KT 10SM CLR 29/23 A2974 RMK AO2 PK WND 19029/1445 SLP057 T02890228 58000 $","lat":38.8221,"lon":-94.8902,"elev":322,"name":"Olathe/New Century Arpt, KS, US","cover":"CLR","clouds":[],"fltCat":"VFR"},{"icaoId":"KOJC","receiptTime":"2026-06-28T14:56:32.775Z","obsTime":1782658380,"reportTime":"2026-06-28T15:00:00.000Z","temp":28.3,"dewp":22.8,"wdir":190,"wspd":14,"wgst":24,"visib":"10+","altim":1007.2,"slp":1005.8,"qcField":4,"presTend":-0.1,"metarType":"METAR","rawOb":"METAR KOJC 281453Z 19014G24KT 10SM FEW025 28/23 A2974 RMK AO2 PK WND 19029/1442 SLP058 T02830228 58001","lat":38.85,"lon":-94.7395,"elev":328,"name":"Olathe/Johnson Cnty, KS, US","cover":"FEW","clouds":[{"cover":"FEW","base":2500}],"fltCat":"VFR"},{"icaoId":"KLWC","receiptTime":"2026-06-28T14:56:20.905Z","obsTime":1782658320,"reportTime":"2026-06-28T15:00:00.000Z","temp":29.4,"dewp":23.3,"wdir":180,"wspd":10,"wgst":22,"visib":"10+","altim":1005.8,"slp":1004.9,"qcField":6,"presTend":-0.1,"metarType":"METAR","rawOb":"METAR KLWC 281452Z AUTO 18010G22KT 10SM CLR 29/23 A2970 RMK AO1 SLP049 T02940233 56001","lat":39.0078,"lon":-95.2115,"elev":252,"name":"Lawrence Muni, KS, US","cover":"CLR","clouds":[],"fltCat":"VFR"}]