[{"icaoId":"KMCI","dbPopTime":"2026-06-28T11:20:07.921Z","bulletinTime":"2026-06-28T11:20:00.000Z","issueTime":"2026-06-28T11:20:00.000Z","validTimeFrom":1782648000,"validTimeTo":1782734400,"rawTAF":"TAF KMCI 281120Z 2812/2912 18014G25KT P6SM FEW250 FM281700 19018G29KT P6SM FEW250 FM290000 18015G24KT P6SM SCT250","mostRecent":1,"remarks":"","lat":39.29747,"lon":-94.73087,"elev":308,"prior":1,"name":"Kansas City Intl","fcsts":[{"timeFrom":1782648000,"timeTo":1782666000,"timeBec":null,"fcstChange":null,"probability":null,"wdir":180,"wspd":14,"wgst":25,"wshearHgt":null,"wshearDir":null,"wshearSpd":null,"visib":"6+","altim":null,"vertVis":null,"wxString":null,"notDecoded":null,"clouds":[{"cover":"FEW","base":25000,"type":null}],"icgTurb":[],"temp":[]},{"timeFrom":1782666000,"timeTo":1782691200,"timeBec":null,"fcstChange":"FM","probability":null,"wdir":190,"wspd":18,"wgst":29,"wshearHgt":null,"wshearDir":null,"wshearSpd":null,"visib":"6+","altim":null,"vertVis":null,"wxString":null,"notDecoded":null,"clouds":[{"cover":"FEW","base":25000,"type":null}],"icgTurb":[],"temp":[]},{"timeFrom":1782691200,"timeTo":1782734400,"timeBec":null,"fcstChange":"FM","probability":null,"wdir":180,"wspd":15,"wgst":24,"wshearHgt":null,"wshearDir":null,"wshearSpd":null,"visib":"6+","altim":null,"vertVis":null,"wxString":null,"notDecoded":null,"clouds":[{"cover":"SCT","base":25000,"type":null}],"icgTurb":[],"temp":[]}]}]